{
  "type": "FeatureCollection",
  "features": [
    {
      "type": "Feature",
      "properties": {
        "norad_id": 31430,
        "name": "FENGYUN 1C DEB",
        "group": "fengyun-1c-debris",
        "lat": 46.038547891258425,
        "lon": -119.48153167899906,
        "alt_km": 804.11701841166,
        "timestamp": "2025-12-14T07:33:19.760391+00:00",
        "meta_object_name": "FENGYUN 1C DEB",
        "meta_object_id": "1999-025BTS",
        "meta_epoch": "2025-12-13T10:47:50.884800",
        "meta_mean_motion": 14.25609911,
        "meta_eccentricity": 0.00268007,
        "meta_inclination": 98.7439,
        "meta_ra_of_asc_node": 50.4732,
        "meta_arg_of_pericenter": 40.347,
        "meta_mean_anomaly": 336.1063,
        "meta_ephemeris_type": 0,
        "meta_classification_type": "U",
        "meta_norad_cat_id": 31430,
        "meta_element_set_no": 999,
        "meta_rev_at_epoch": 96128,
        "meta_bstar": 0.0014602599,
        "meta_mean_motion_dot": 3.428e-05,
        "meta_mean_motion_ddot": 0,
        "tle_line1": "1 31430U 99025BTS 25347.44989450  .00003428  00000+0  14603-2 0  9992",
        "tle_line2": "2 31430  98.7439  50.4732 0026800  40.3470 336.1063 14.25609911961284"
      },
      "geometry": {
        "type": "Point",
        "coordinates": [
          -119.48153167899906,
          46.038547891258425
        ]
      }
    },
    {
      "type": "Feature",
      "properties": {
        "norad_id": 31431,
        "name": "FENGYUN 1C DEB",
        "group": "fengyun-1c-debris",
        "lat": -74.61240026605232,
        "lon": 23.305845480649378,
        "alt_km": 984.2565349346523,
        "timestamp": "2025-12-14T07:33:19.760401+00:00",
        "meta_object_name": "FENGYUN 1C DEB",
        "meta_object_id": "1999-025BTT",
        "meta_epoch": "2025-12-13T14:56:21.998976",
        "meta_mean_motion": 14.03085979,
        "meta_eccentricity": 0.01331698,
        "meta_inclination": 98.5394,
        "meta_ra_of_asc_node": 235.7445,
        "meta_arg_of_pericenter": 92.8803,
        "meta_mean_anomaly": 268.7614,
        "meta_ephemeris_type": 0,
        "meta_classification_type": "U",
        "meta_norad_cat_id": 31431,
        "meta_element_set_no": 999,
        "meta_rev_at_epoch": 94544,
        "meta_bstar": 0.0020056089,
        "meta_mean_motion_dot": 3.335e-05,
        "meta_mean_motion_ddot": 0,
        "tle_line1": "1 31431U 99025BTT 25347.62247684  .00003335  00000+0  20056-2 0  9995",
        "tle_line2": "2 31431  98.5394 235.7445 0133169  92.8803 268.7614 14.03085979945441"
      },
      "geometry": {
        "type": "Point",
        "coordinates": [
          23.305845480649378,
          -74.61240026605232
        ]
      }
    },
    {
      "type": "Feature",
      "properties": {
        "norad_id": 31433,
        "name": "FENGYUN 1C DEB",
        "group": "fengyun-1c-debris",
        "lat": -49.9475915084335,
        "lon": -98.14307616205848,
        "alt_km": 794.9674640509775,
        "timestamp": "2025-12-14T07:33:19.760411+00:00",
        "meta_object_name": "FENGYUN 1C DEB",
        "meta_object_id": "1999-025BTV",
        "meta_epoch": "2025-12-12T17:17:51.995616",
        "meta_mean_motion": 14.25429587,
        "meta_eccentricity": 0.01003684,
        "meta_inclination": 98.4099,
        "meta_ra_of_asc_node": 250.1924,
        "meta_arg_of_pericenter": 29.4603,
        "meta_mean_anomaly": 25.575,
        "meta_ephemeris_type": 0,
        "meta_classification_type": "U",
        "meta_norad_cat_id": 31433,
        "meta_element_set_no": 999,
        "meta_rev_at_epoch": 95552,
        "meta_bstar": 0.0036723881,
        "meta_mean_motion_dot": 9.105e-05,
        "meta_mean_motion_ddot": 0,
        "tle_line1": "1 31433U 99025BTV 25346.72074069  .00009105  00000+0  36724-2 0  9992",
        "tle_line2": "2 31433  98.4099 250.1924 0100368  29.4603  25.5750 14.25429587955527"
      },
      "geometry": {
        "type": "Point",
        "coordinates": [
          -98.14307616205848,
          -49.9475915084335
        ]
      }
    },
    {
      "type": "Feature",
      "properties": {
        "norad_id": 31435,
        "name": "FENGYUN 1C DEB",
        "group": "fengyun-1c-debris",
        "lat": -6.313129029024528,
        "lon": -20.742289252129506,
        "alt_km": 614.3257938917641,
        "timestamp": "2025-12-14T07:33:19.760421+00:00",
        "meta_object_name": "FENGYUN 1C DEB",
        "meta_object_id": "1999-025BTX",
        "meta_epoch": "2025-12-13T05:55:11.209728",
        "meta_mean_motion": 14.53439157,
        "meta_eccentricity": 0.01490352,
        "meta_inclination": 99.0365,
        "meta_ra_of_asc_node": 159.115,
        "meta_arg_of_pericenter": 178.4819,
        "meta_mean_anomaly": 181.6858,
        "meta_ephemeris_type": 0,
        "meta_classification_type": "U",
        "meta_norad_cat_id": 31435,
        "meta_element_set_no": 999,
        "meta_rev_at_epoch": 98380,
        "meta_bstar": 0.00042194713,
        "meta_mean_motion_dot": 1.975e-05,
        "meta_mean_motion_ddot": 0,
        "tle_line1": "1 31435U 99025BTX 25347.24665752  .00001975  00000+0  42195-3 0  9994",
        "tle_line2": "2 31435  99.0365 159.1150 0149035 178.4819 181.6858 14.53439157983809"
      },
      "geometry": {
        "type": "Point",
        "coordinates": [
          -20.742289252129506,
          -6.313129029024528
        ]
      }
    },
    {
      "type": "Feature",
      "properties": {
        "norad_id": 31436,
        "name": "FENGYUN 1C DEB",
        "group": "fengyun-1c-debris",
        "lat": 8.531303629991127,
        "lon": -159.87779418540939,
        "alt_km": 607.4138937307998,
        "timestamp": "2025-12-14T07:33:19.760432+00:00",
        "meta_object_name": "FENGYUN 1C DEB",
        "meta_object_id": "1999-025BTY",
        "meta_epoch": "2025-12-13T01:39:30.163104",
        "meta_mean_motion": 14.93739115,
        "meta_eccentricity": 0.00435316,
        "meta_inclination": 98.8814,
        "meta_ra_of_asc_node": 200.0597,
        "meta_arg_of_pericenter": 241.5585,
        "meta_mean_anomaly": 271.6579,
        "meta_ephemeris_type": 0,
        "meta_classification_type": "U",
        "meta_norad_cat_id": 31436,
        "meta_element_set_no": 999,
        "meta_rev_at_epoch": 96881,
        "meta_bstar": 0.006751491,
        "meta_mean_motion_dot": 0.00073483,
        "meta_mean_motion_ddot": 0,
        "tle_line1": "1 31436U 99025BTY 25347.06909911  .00073483  00000+0  67515-2 0  9998",
        "tle_line2": "2 31436  98.8814 200.0597 0043531 241.5585 271.6579 14.93739115968818"
      },
      "geometry": {
        "type": "Point",
        "coordinates": [
          -159.87779418540939,
          8.531303629991127
        ]
      }
    },
    {
      "type": "Feature",
      "properties": {
        "norad_id": 31437,
        "name": "FENGYUN 1C DEB",
        "group": "fengyun-1c-debris",
        "lat": -44.36557834969858,
        "lon": 78.2226110799338,
        "alt_km": 753.2209156380268,
        "timestamp": "2025-12-14T07:33:19.760442+00:00",
        "meta_object_name": "FENGYUN 1C DEB",
        "meta_object_id": "1999-025BTZ",
        "meta_epoch": "2025-12-13T11:47:16.084032",
        "meta_mean_motion": 14.42533828,
        "meta_eccentricity": 0.00156834,
        "meta_inclination": 98.8642,
        "meta_ra_of_asc_node": 68.5871,
        "meta_arg_of_pericenter": 245.6993,
        "meta_mean_anomaly": 114.2558,
        "meta_ephemeris_type": 0,
        "meta_classification_type": "U",
        "meta_norad_cat_id": 31437,
        "meta_element_set_no": 999,
        "meta_rev_at_epoch": 96521,
        "meta_bstar": 0.004033595,
        "meta_mean_motion_dot": 0.00013375,
        "meta_mean_motion_ddot": 0,
        "tle_line1": "1 31437U 99025BTZ 25347.49115838  .00013375  00000+0  40336-2 0  9999",
        "tle_line2": "2 31437  98.8642  68.5871 0015683 245.6993 114.2558 14.42533828965212"
      },
      "geometry": {
        "type": "Point",
        "coordinates": [
          78.2226110799338,
          -44.36557834969858
        ]
      }
    },
    {
      "type": "Feature",
      "properties": {
        "norad_id": 31439,
        "name": "FENGYUN 1C DEB",
        "group": "fengyun-1c-debris",
        "lat": -16.754121495932498,
        "lon": 171.57843063379096,
        "alt_km": 835.67700107561,
        "timestamp": "2025-12-14T07:33:19.760452+00:00",
        "meta_object_name": "FENGYUN 1C DEB",
        "meta_object_id": "1999-025BUB",
        "meta_epoch": "2025-12-12T19:19:53.637024",
        "meta_mean_motion": 13.95579652,
        "meta_eccentricity": 0.01378725,
        "meta_inclination": 98.9169,
        "meta_ra_of_asc_node": 352.8268,
        "meta_arg_of_pericenter": 161.6285,
        "meta_mean_anomaly": 15.3641,
        "meta_ephemeris_type": 0,
        "meta_classification_type": "U",
        "meta_norad_cat_id": 31439,
        "meta_element_set_no": 999,
        "meta_rev_at_epoch": 63233,
        "meta_bstar": 0.0007424398,
        "meta_mean_motion_dot": 1.051e-05,
        "meta_mean_motion_ddot": 0,
        "tle_line1": "1 31439U 99025BUB 25346.80548191  .00001051  00000+0  74244-3 0  9991",
        "tle_line2": "2 31439  98.9169 352.8268 0137872 161.6285  15.3641 13.95579652632334"
      },
      "geometry": {
        "type": "Point",
        "coordinates": [
          171.57843063379096,
          -16.754121495932498
        ]
      }
    }
  ]
}